{
  "type": "FeatureCollection",
  "features": [
    {
      "type": "Feature",
      "properties": {
        "norad_id": 31322,
        "name": "FENGYUN 1C DEB",
        "group": "fengyun-1c-debris",
        "lat": -48.43031952128442,
        "lon": -141.17824579466526,
        "alt_km": 1141.5717577168962,
        "timestamp": "2025-12-10T14:53:37.373099+00:00",
        "meta_object_name": "FENGYUN 1C DEB",
        "meta_object_id": "1999-025BQA",
        "meta_epoch": "2025-12-08T23:52:58.153728",
        "meta_mean_motion": 13.72994467,
        "meta_eccentricity": 0.0238726,
        "meta_inclination": 98.5739,
        "meta_ra_of_asc_node": 47.1579,
        "meta_arg_of_pericenter": 20.2617,
        "meta_mean_anomaly": 100.4309,
        "meta_ephemeris_type": 0,
        "meta_classification_type": "U",
        "meta_norad_cat_id": 31322,
        "meta_element_set_no": 999,
        "meta_rev_at_epoch": 62224,
        "meta_bstar": 0.00026306,
        "meta_mean_motion_dot": 2.61e-06,
        "meta_mean_motion_ddot": 0,
        "tle_line1": "1 31322U 99025BQA 25342.99511752  .00000261  00000+0  26306-3 0  9999",
        "tle_line2": "2 31322  98.5739  47.1579 0238726  20.2617 100.4309 13.72994467622248"
      },
      "geometry": {
        "type": "Point",
        "coordinates": [
          -141.17824579466526,
          -48.43031952128442
        ]
      }
    },
    {
      "type": "Feature",
      "properties": {
        "norad_id": 31323,
        "name": "FENGYUN 1C DEB",
        "group": "fengyun-1c-debris",
        "lat": 80.43673601338396,
        "lon": -76.86981618428749,
        "alt_km": 769.818282947539,
        "timestamp": "2025-12-10T14:53:37.373109+00:00",
        "meta_object_name": "FENGYUN 1C DEB",
        "meta_object_id": "1999-025BQB",
        "meta_epoch": "2025-12-08T20:24:53.296704",
        "meta_mean_motion": 14.27547712,
        "meta_eccentricity": 0.0031659,
        "meta_inclination": 99.4204,
        "meta_ra_of_asc_node": 21.0206,
        "meta_arg_of_pericenter": 90.9492,
        "meta_mean_anomaly": 269.5314,
        "meta_ephemeris_type": 0,
        "meta_classification_type": "U",
        "meta_norad_cat_id": 31323,
        "meta_element_set_no": 999,
        "meta_rev_at_epoch": 63925,
        "meta_bstar": 0.0017663,
        "meta_mean_motion_dot": 4.319e-05,
        "meta_mean_motion_ddot": 0,
        "tle_line1": "1 31323U 99025BQB 25342.85061686  .00004319  00000+0  17663-2 0  9994",
        "tle_line2": "2 31323  99.4204  21.0206 0031659  90.9492 269.5314 14.27547712639255"
      },
      "geometry": {
        "type": "Point",
        "coordinates": [
          -76.86981618428749,
          80.43673601338396
        ]
      }
    },
    {
      "type": "Feature",
      "properties": {
        "norad_id": 31324,
        "name": "FENGYUN 1C DEB",
        "group": "fengyun-1c-debris",
        "lat": -59.828848984966974,
        "lon": -77.90481632064078,
        "alt_km": 815.3996268162246,
        "timestamp": "2025-12-10T14:53:37.373118+00:00",
        "meta_object_name": "FENGYUN 1C DEB",
        "meta_object_id": "1999-025BQC",
        "meta_epoch": "2025-12-07T05:42:12.838176",
        "meta_mean_motion": 14.1468856,
        "meta_eccentricity": 0.00495023,
        "meta_inclination": 99.1231,
        "meta_ra_of_asc_node": 262.5935,
        "meta_arg_of_pericenter": 319.9543,
        "meta_mean_anomaly": 39.7984,
        "meta_ephemeris_type": 0,
        "meta_classification_type": "U",
        "meta_norad_cat_id": 31324,
        "meta_element_set_no": 999,
        "meta_rev_at_epoch": 96408,
        "meta_bstar": 0.0003363527,
        "meta_mean_motion_dot": 6.08e-06,
        "meta_mean_motion_ddot": 0,
        "tle_line1": "1 31324U 99025BQC 25341.23764859  .00000608  00000+0  33635-3 0  9993",
        "tle_line2": "2 31324  99.1231 262.5935 0049502 319.9543  39.7984 14.14688560964086"
      },
      "geometry": {
        "type": "Point",
        "coordinates": [
          -77.90481632064078,
          -59.828848984966974
        ]
      }
    },
    {
      "type": "Feature",
      "properties": {
        "norad_id": 31325,
        "name": "FENGYUN 1C DEB",
        "group": "fengyun-1c-debris",
        "lat": -13.102613325556382,
        "lon": -103.35781652601364,
        "alt_km": 796.9492401615944,
        "timestamp": "2025-12-10T14:53:37.373127+00:00",
        "meta_object_name": "FENGYUN 1C DEB",
        "meta_object_id": "1999-025BQD",
        "meta_epoch": "2025-12-08T12:49:45.026688",
        "meta_mean_motion": 14.16832394,
        "meta_eccentricity": 0.0071877,
        "meta_inclination": 98.9914,
        "meta_ra_of_asc_node": 76.6463,
        "meta_arg_of_pericenter": 232.309,
        "meta_mean_anomaly": 127.1552,
        "meta_ephemeris_type": 0,
        "meta_classification_type": "U",
        "meta_norad_cat_id": 31325,
        "meta_element_set_no": 999,
        "meta_rev_at_epoch": 59718,
        "meta_bstar": 0.0032596677,
        "meta_mean_motion_dot": 6.657e-05,
        "meta_mean_motion_ddot": 0,
        "tle_line1": "1 31325U 99025BQD 25342.53454892  .00006657  00000+0  32597-2 0  9996",
        "tle_line2": "2 31325  98.9914  76.6463 0071877 232.3090 127.1552 14.16832394597181"
      },
      "geometry": {
        "type": "Point",
        "coordinates": [
          -103.35781652601364,
          -13.102613325556382
        ]
      }
    },
    {
      "type": "Feature",
      "properties": {
        "norad_id": 31326,
        "name": "FENGYUN 1C DEB",
        "group": "fengyun-1c-debris",
        "lat": -54.991697486239765,
        "lon": 33.17781242462598,
        "alt_km": 572.9398228588307,
        "timestamp": "2025-12-10T14:53:37.373136+00:00",
        "meta_object_name": "FENGYUN 1C DEB",
        "meta_object_id": "1999-025BQE",
        "meta_epoch": "2025-11-25T14:42:32.298048",
        "meta_mean_motion": 14.96360134,
        "meta_eccentricity": 0.00187059,
        "meta_inclination": 99.013,
        "meta_ra_of_asc_node": 208.9742,
        "meta_arg_of_pericenter": 1.9794,
        "meta_mean_anomaly": 358.1494,
        "meta_ephemeris_type": 0,
        "meta_classification_type": "U",
        "meta_norad_cat_id": 31326,
        "meta_element_set_no": 999,
        "meta_rev_at_epoch": 73489,
        "meta_bstar": 0.0084230344,
        "meta_mean_motion_dot": 0.00096893,
        "meta_mean_motion_ddot": 0,
        "tle_line1": "1 31326U 99025BQE 25329.61287382  .00096893  00000+0  84230-2 0  9991",
        "tle_line2": "2 31326  99.0130 208.9742 0018705   1.9794 358.1494 14.96360134734894"
      },
      "geometry": {
        "type": "Point",
        "coordinates": [
          33.17781242462598,
          -54.991697486239765
        ]
      }
    },
    {
      "type": "Feature",
      "properties": {
        "norad_id": 31327,
        "name": "FENGYUN 1C DEB",
        "group": "fengyun-1c-debris",
        "lat": -44.648936921362974,
        "lon": -5.373118018793227,
        "alt_km": 511.99139551420376,
        "timestamp": "2025-12-10T14:53:37.373146+00:00",
        "meta_object_name": "FENGYUN 1C DEB",
        "meta_object_id": "1999-025BQF",
        "meta_epoch": "2025-12-09T23:11:42.451584",
        "meta_mean_motion": 15.10653335,
        "meta_eccentricity": 0.00874169,
        "meta_inclination": 98.9846,
        "meta_ra_of_asc_node": 344.8682,
        "meta_arg_of_pericenter": 18.8968,
        "meta_mean_anomaly": 341.5467,
        "meta_ephemeris_type": 0,
        "meta_classification_type": "U",
        "meta_norad_cat_id": 31327,
        "meta_element_set_no": 999,
        "meta_rev_at_epoch": 57,
        "meta_bstar": 0.00227557,
        "meta_mean_motion_dot": 0.00041356,
        "meta_mean_motion_ddot": 0,
        "tle_line1": "1 31327U 99025BQF 25343.96646356  .00041356  00000+0  22756-2 0  9995",
        "tle_line2": "2 31327  98.9846 344.8682 0087416  18.8968 341.5467 15.10653335   577"
      },
      "geometry": {
        "type": "Point",
        "coordinates": [
          -5.373118018793227,
          -44.648936921362974
        ]
      }
    },
    {
      "type": "Feature",
      "properties": {
        "norad_id": 31328,
        "name": "FENGYUN 1C DEB",
        "group": "fengyun-1c-debris",
        "lat": 25.50745096792276,
        "lon": -45.63881206002511,
        "alt_km": 865.4245120228998,
        "timestamp": "2025-12-10T14:53:37.373155+00:00",
        "meta_object_name": "FENGYUN 1C DEB",
        "meta_object_id": "1999-025BQG",
        "meta_epoch": "2025-12-10T04:41:16.491264",
        "meta_mean_motion": 14.28942872,
        "meta_eccentricity": 0.01034981,
        "meta_inclination": 98.483,
        "meta_ra_of_asc_node": 318.0309,
        "meta_arg_of_pericenter": 223.9854,
        "meta_mean_anomaly": 135.3058,
        "meta_ephemeris_type": 0,
        "meta_classification_type": "U",
        "meta_norad_cat_id": 31328,
        "meta_element_set_no": 999,
        "meta_rev_at_epoch": 97426,
        "meta_bstar": 0.00012201467,
        "meta_mean_motion_dot": 2.83e-06,
        "meta_mean_motion_ddot": 0,
        "tle_line1": "1 31328U 99025BQG 25344.19532976  .00000283  00000+0  12201-3 0  9993",
        "tle_line2": "2 31328  98.4830 318.0309 0103498 223.9854 135.3058 14.28942872974263"
      },
      "geometry": {
        "type": "Point",
        "coordinates": [
          -45.63881206002511,
          25.50745096792276
        ]
      }
    }
  ]
}